start=new Date('2023-04-12T00:00:00.000Z').valueOf();
sats=[{"MEAN_MOTION_DDOT":"0.0000000000000","APOAPSIS":"540.689","OBJECT_TYPE":"PAYLOAD","MEAN_MOTION_DOT":"0.00000093","SEMIMAJOR_AXIS":"6917.885","ARG_OF_PERICENTER":"78.2036","OBJECT_ID":"2022-010P","GP_ID":"229946453","CENTER_NAME":"EARTH","BSTAR":"0.00002392700000","NORAD_CAT_ID":"51469","MEAN_ELEMENT_THEORY":"SGP4","EPHEMERIS_TYPE":"0","REV_AT_EPOCH":"6635","COUNTRY_CODE":"US","TLE_LINE2":"2 51469  53.2168  10.8761 0001357  78.2036 281.9108 15.08838547 66355","PERIAPSIS":"538.811","OBJECT_NAME":"STARLINK-3182","REF_FRAME":"TEME","RA_OF_ASC_NODE":"10.8761","MEAN_ANOMALY":"281.9108","TIME_SYSTEM":"UTC","EPOCH":"2023-04-11T17:48:16.659936","INCLINATION":"53.2168","ELEMENT_SET_NO":"999","RCS_SIZE":"LARGE","SITE":"AFETR","CLASSIFICATION_TYPE":"U","MEAN_MOTION":"15.08838547","FILE":"3885919","TLE_LINE1":"1 51469U 22010P   23101.74185949  .00000093  00000-0  23927-4 0  9993","PERIOD":"95.438","DECAY_DATE":null,"LAUNCH_DATE":"2022-02-03","ECCENTRICITY":"0.00013570"},{"ECCENTRICITY":"0.00070110","DECAY_DATE":null,"LAUNCH_DATE":"2022-02-03","PERIOD":"94.523","CLASSIFICATION_TYPE":"U","TLE_LINE1":"1 51471U 22010R   23101.00110543  .00072713  00000-0  29961-2 0  9993","MEAN_MOTION":"15.23438940","FILE":"3885783","SITE":"AFETR","ELEMENT_SET_NO":"999","INCLINATION":"53.2233","RCS_SIZE":"LARGE","EPOCH":"2023-04-11T00:01:35.509152","RA_OF_ASC_NODE":"2.7328","MEAN_ANOMALY":"225.4990","TIME_SYSTEM":"UTC","REF_FRAME":"TEME","OBJECT_NAME":"STARLINK-3165","TLE_LINE2":"2 51471  53.2233   2.7328 0007011 134.6581 225.4990 15.23438940 66403","COUNTRY_CODE":"US","PERIAPSIS":"490.660","REV_AT_EPOCH":"6640","NORAD_CAT_ID":"51471","MEAN_ELEMENT_THEORY":"SGP4","EPHEMERIS_TYPE":"0","CENTER_NAME":"EARTH","BSTAR":"0.00299610000000","OBJECT_ID":"2022-010R","ARG_OF_PERICENTER":"134.6581","GP_ID":"229917093","SEMIMAJOR_AXIS":"6873.614","MEAN_MOTION_DOT":"0.00072713","OBJECT_TYPE":"PAYLOAD","APOAPSIS":"500.298","MEAN_MOTION_DDOT":"0.0000000000000"},{"MEAN_MOTION_DOT":"0.00004954","SEMIMAJOR_AXIS":"6917.833","MEAN_MOTION_DDOT":"0.0000000000000","OBJECT_TYPE":"PAYLOAD","APOAPSIS":"540.355","EPHEMERIS_TYPE":"0","MEAN_ELEMENT_THEORY":"SGP4","NORAD_CAT_ID":"51472","REV_AT_EPOCH":"6627","GP_ID":"229915843","ARG_OF_PERICENTER":"115.0905","OBJECT_ID":"2022-010S","BSTAR":"0.00032899000000","CENTER_NAME":"EARTH","EPOCH":"2023-04-11T04:38:40.640352","TIME_SYSTEM":"UTC","MEAN_ANOMALY":"245.0186","RA_OF_ASC_NODE":"13.3391","RCS_SIZE":"LARGE","ELEMENT_SET_NO":"999","INCLINATION":"53.2174","PERIAPSIS":"539.041","TLE_LINE2":"2 51472  53.2174  13.3391 0000950 115.0905 245.0186 15.08855557 66274","COUNTRY_CODE":"US","REF_FRAME":"TEME","OBJECT_NAME":"STARLINK-3415","PERIOD":"95.437","ECCENTRICITY":"0.00009500","DECAY_DATE":null,"LAUNCH_DATE":"2022-02-03","SITE":"AFETR","TLE_LINE1":"1 51472U 22010S   23101.19352593  .00004954  00000-0  32899-3 0  9994","FILE":"3885783","MEAN_MOTION":"15.08855557","CLASSIFICATION_TYPE":"U"},{"BSTAR":"0.00015969000000","CENTER_NAME":"EARTH","GP_ID":"229917600","OBJECT_ID":"2022-016A","ARG_OF_PERICENTER":"95.9810","REV_AT_EPOCH":"6288","EPHEMERIS_TYPE":"0","MEAN_ELEMENT_THEORY":"SGP4","NORAD_CAT_ID":"51714","APOAPSIS":"540.518","OBJECT_TYPE":"PAYLOAD","MEAN_MOTION_DDOT":"0.0000000000000","SEMIMAJOR_AXIS":"6917.855","MEAN_MOTION_DOT":"0.00002255","FILE":"3885783","MEAN_MOTION":"15.08848365","TLE_LINE1":"1 51714U 22016A   23101.26253196  .00002255  00000-0  15969-3 0  9997","CLASSIFICATION_TYPE":"U","SITE":"AFETR","DECAY_DATE":null,"LAUNCH_DATE":"2022-02-21","ECCENTRICITY":"0.00011540","PERIOD":"95.437","OBJECT_NAME":"STARLINK-3528","REF_FRAME":"TEME","PERIAPSIS":"538.922","TLE_LINE2":"2 51714  53.2171  63.0277 0001154  95.9810 264.1314 15.08848365 62880","COUNTRY_CODE":"US","RCS_SIZE":"LARGE","INCLINATION":"53.2171","ELEMENT_SET_NO":"999","TIME_SYSTEM":"UTC","MEAN_ANOMALY":"264.1314","RA_OF_ASC_NODE":"63.0277","EPOCH":"2023-04-11T06:18:02.761344"},{"ECCENTRICITY":"0.00011990","LAUNCH_DATE":"2022-02-21","DECAY_DATE":null,"PERIOD":"95.437","TLE_LINE1":"1 51715U 22016B   23101.25148833  .00000338  00000-0  39320-4 0  9996","MEAN_MOTION":"15.08849837","FILE":"3885783","CLASSIFICATION_TYPE":"U","SITE":"AFETR","RCS_SIZE":"LARGE","ELEMENT_SET_NO":"999","INCLINATION":"53.2176","EPOCH":"2023-04-11T06:02:08.591712","MEAN_ANOMALY":"261.1266","RA_OF_ASC_NODE":"63.0742","TIME_SYSTEM":"UTC","REF_FRAME":"TEME","OBJECT_NAME":"STARLINK-3533","PERIAPSIS":"538.886","TLE_LINE2":"2 51715  53.2176  63.0742 0001199  98.9862 261.1266 15.08849837 64017","COUNTRY_CODE":"US","REV_AT_EPOCH":"6401","EPHEMERIS_TYPE":"0","MEAN_ELEMENT_THEORY":"SGP4","NORAD_CAT_ID":"51715","BSTAR":"0.00003932000000","CENTER_NAME":"EARTH","GP_ID":"229916350","ARG_OF_PERICENTER":"98.9862","OBJECT_ID":"2022-016B","SEMIMAJOR_AXIS":"6917.850","MEAN_MOTION_DOT":"0.00000338","OBJECT_TYPE":"PAYLOAD","APOAPSIS":"540.545","MEAN_MOTION_DDOT":"0.0000000000000"},{"REV_AT_EPOCH":"6288","NORAD_CAT_ID":"51716","EPHEMERIS_TYPE":"0","MEAN_ELEMENT_THEORY":"SGP4","CENTER_NAME":"EARTH","BSTAR":"0.00007409500000","ARG_OF_PERICENTER":"104.0973","OBJECT_ID":"2022-016C","GP_ID":"229916600","SEMIMAJOR_AXIS":"6917.877","MEAN_MOTION_DOT":"0.00000892","APOAPSIS":"540.482","OBJECT_TYPE":"PAYLOAD","MEAN_MOTION_DDOT":"0.0000000000000","LAUNCH_DATE":"2022-02-21","DECAY_DATE":null,"ECCENTRICITY":"0.00010700","PERIOD":"95.437","CLASSIFICATION_TYPE":"U","FILE":"3885783","MEAN_MOTION":"15.08841209","TLE_LINE1":"1 51716U 22016C   23101.25885717  .00000892  00000-0  74095-4 0  9999","SITE":"AFETR","INCLINATION":"53.2191","ELEMENT_SET_NO":"999","RCS_SIZE":"LARGE","MEAN_ANOMALY":"256.0138","RA_OF_ASC_NODE":"63.0454","TIME_SYSTEM":"UTC","EPOCH":"2023-04-11T06:12:45.259488","OBJECT_NAME":"STARLINK-3543","REF_FRAME":"TEME","COUNTRY_CODE":"US","TLE_LINE2":"2 51716  53.2191  63.0454 0001070 104.0973 256.0138 15.08841209 62884","PERIAPSIS":"539.001"},{"SITE":"AFETR","FILE":"3885783","MEAN_MOTION":"15.08849541","TLE_LINE1":"1 51717U 22016D   23101.32141052 -.00000232  00000-0  35313-5 0  9995","CLASSIFICATION_TYPE":"U","PERIOD":"95.437","LAUNCH_DATE":"2022-02-21","DECAY_DATE":null,"ECCENTRICITY":"0.00016130","PERIAPSIS":"538.600","COUNTRY_CODE":"US","TLE_LINE2":"2 51717  53.2180  62.7625 0001613 119.6125 240.5028 15.08849541 62897","OBJECT_NAME":"STARLINK-3445","REF_FRAME":"TEME","RA_OF_ASC_NODE":"62.7625","MEAN_ANOMALY":"240.5028","TIME_SYSTEM":"UTC","EPOCH":"2023-04-11T07:42:49.868928","RCS_SIZE":"LARGE","INCLINATION":"53.2180","ELEMENT_SET_NO":"999","GP_ID":"229916852","OBJECT_ID":"2022-016D","ARG_OF_PERICENTER":"119.6125","BSTAR":"0.00000353130000","CENTER_NAME":"EARTH","MEAN_ELEMENT_THEORY":"SGP4","EPHEMERIS_TYPE":"0","NORAD_CAT_ID":"51717","REV_AT_EPOCH":"6289","MEAN_MOTION_DDOT":"0.0000000000000","APOAPSIS":"540.832","OBJECT_TYPE":"PAYLOAD","MEAN_MOTION_DOT":"-0.00000232","SEMIMAJOR_AXIS":"6917.851"},{"REV_AT_EPOCH":"6400","NORAD_CAT_ID":"51718","EPHEMERIS_TYPE":"0","MEAN_ELEMENT_THEORY":"SGP4","CENTER_NAME":"EARTH","BSTAR":"0.00019054000000","ARG_OF_PERICENTER":"96.6973","OBJECT_ID":"2022-016E","GP_ID":"229917101","SEMIMAJOR_AXIS":"6917.844","MEAN_MOTION_DOT":"0.00002747","OBJECT_TYPE":"PAYLOAD","APOAPSIS":"540.670","MEAN_MOTION_DDOT":"0.0000000000000","ECCENTRICITY":"0.00013880","LAUNCH_DATE":"2022-02-21","DECAY_DATE":null,"PERIOD":"95.437","CLASSIFICATION_TYPE":"U","TLE_LINE1":"1 51718U 22016E   23101.24045031  .00002747  00000-0  19054-3 0  9991","FILE":"3885783","MEAN_MOTION":"15.08851761","SITE":"AFETR","ELEMENT_SET_NO":"999","INCLINATION":"53.2183","RCS_SIZE":"LARGE","EPOCH":"2023-04-11T05:46:14.906784","TIME_SYSTEM":"UTC","RA_OF_ASC_NODE":"63.1239","MEAN_ANOMALY":"263.4178","REF_FRAME":"TEME","OBJECT_NAME":"STARLINK-3546","TLE_LINE2":"2 51718  53.2183  63.1239 0001388  96.6973 263.4178 15.08851761 64003","COUNTRY_CODE":"US","PERIAPSIS":"538.749"},{"RCS_SIZE":"LARGE","ELEMENT_SET_NO":"999","INCLINATION":"53.2177","EPOCH":"2023-04-11T21:52:05.853504","TIME_SYSTEM":"UTC","MEAN_ANOMALY":"271.6209","RA_OF_ASC_NODE":"60.1228","REF_FRAME":"TEME","OBJECT_NAME":"STARLINK-3540","PERIAPSIS":"538.667","TLE_LINE2":"2 51719  53.2177  60.1228 0001577  88.4964 271.6209 15.08836037 62981","COUNTRY_CODE":"US","ECCENTRICITY":"0.00015770","DECAY_DATE":null,"LAUNCH_DATE":"2022-02-21","PERIOD":"95.438","TLE_LINE1":"1 51719U 22016F   23101.91117886 -.00000319  00000-0 -19501-5 0  9998","FILE":"3885919","MEAN_MOTION":"15.08836037","CLASSIFICATION_TYPE":"U","SITE":"AFETR","SEMIMAJOR_AXIS":"6917.893","MEAN_MOTION_DOT":"-0.00000319","OBJECT_TYPE":"PAYLOAD","APOAPSIS":"540.848","MEAN_MOTION_DDOT":"0.0000000000000","REV_AT_EPOCH":"6298","EPHEMERIS_TYPE":"0","MEAN_ELEMENT_THEORY":"SGP4","NORAD_CAT_ID":"51719","BSTAR":"-0.00000195010000","CENTER_NAME":"EARTH","GP_ID":"229945460","OBJECT_ID":"2022-016F","ARG_OF_PERICENTER":"88.4964"},{"REV_AT_EPOCH":"6297","MEAN_ELEMENT_THEORY":"SGP4","EPHEMERIS_TYPE":"0","NORAD_CAT_ID":"51720","BSTAR":"0.00017404000000","CENTER_NAME":"EARTH","GP_ID":"229945710","ARG_OF_PERICENTER":"94.3247","OBJECT_ID":"2022-016G","SEMIMAJOR_AXIS":"6917.850","MEAN_MOTION_DOT":"0.00002484","APOAPSIS":"540.593","OBJECT_TYPE":"PAYLOAD","MEAN_MOTION_DDOT":"0.0000000000000","LAUNCH_DATE":"2022-02-21","DECAY_DATE":null,"ECCENTRICITY":"0.00012680","PERIOD":"95.437","MEAN_MOTION":"15.08849794","FILE":"3885919","TLE_LINE1":"1 51720U 22016G   23101.89644486  .00002484  00000-0  17404-3 0  9999","CLASSIFICATION_TYPE":"U","SITE":"AFETR","RCS_SIZE":"LARGE","INCLINATION":"53.2161","ELEMENT_SET_NO":"999","RA_OF_ASC_NODE":"60.1526","TIME_SYSTEM":"UTC","MEAN_ANOMALY":"265.7890","EPOCH":"2023-04-11T21:30:52.835904","OBJECT_NAME":"STARLINK-3526","REF_FRAME":"TEME","PERIAPSIS":"538.838","TLE_LINE2":"2 51720  53.2161  60.1526 0001268  94.3247 265.7890 15.08849794 62977","COUNTRY_CODE":"US"}];
